NORAD_CAT_ID,OBJECT_NAME,OBJECT_TYPE,EPOCH,MEAN_MOTION,ECCENTRICITY,INCLINATION,RA_OF_ASC_NODE,ARG_OF_PERICENTER,MEAN_ANOMALY,BSTAR,MEAN_MOTION_DOT,MEAN_MOTION_DDOT,TLE_LINE0,TLE_LINE1,TLE_LINE2,SEMIMAJOR_AXIS,PERIOD,APOGEE,PERIGEE,DECAYED
50848.0,STARLINK-3315,PAYLOAD,2023-05-21 05:57:52,15.08851594,0.0001099,53.2167,93.5275,89.4335,270.6784,0.00012645,1.726e-05,0.0,0 STARLINK-3315,1 50848U 22001AX  23141.24852470  .00001726  00000-0  12645-3 0  9990,2 50848  53.2167  93.5275 0001099  89.4335 270.6784 15.08851594 75768,6917.845,95.437,540.47,538.95,0.0
50848.0,STARLINK-3315,PAYLOAD,2023-05-21 20:16:22,15.08830297,0.0001404,53.2175,90.8518,90.0331,270.0822,-8.7434e-05,-1.679e-05,0.0,0 STARLINK-3315,1 50848U 22001AX  23141.84470841 -.00001679  00000-0 -87434-4 0  9992,2 50848  53.2175  90.8518 0001404  90.0331 270.0822 15.08830297 75855,6917.91,95.438,540.746,538.804,0.0
50848.0,STARLINK-3315,PAYLOAD,2023-05-22 02:37:55,15.08827927,0.0001243,53.217,89.6609,92.0956,268.0178,-0.00010832,-2.011e-05,0.0,0 STARLINK-3315,1 50848U 22001AX  23142.10967204 -.00002011  00000-0 -10832-3 0  9994,2 50848  53.2170  89.6609 0001243  92.0956 268.0178 15.08827927 77201,6917.917,95.438,540.642,538.922,0.0
50848.0,STARLINK-3315,PAYLOAD,2023-05-22 05:48:41,15.08830288,0.0001206,53.217,89.0662,92.3052,267.8078,-8.3669e-05,-1.619e-05,0.0,0 STARLINK-3315,1 50848U 22001AX  23142.24215078 -.00001619  00000-0 -83669-4 0  9996,2 50848  53.2170  89.0662 0001206  92.3052 267.8078 15.08830288 75919,6917.91,95.438,540.609,538.941,0.0
50848.0,STARLINK-3315,PAYLOAD,2023-05-23 02:28:41,15.08850964,0.0001265,53.2182,85.2008,82.2982,277.8154,3.0155e-05,1.92e-06,0.0,0 STARLINK-3315,1 50848U 22001AX  23143.10325596  .00000192  00000-0  30155-4 0  9994,2 50848  53.2182  85.2008 0001265  82.2982 277.8154 15.08850964 77358,6917.847,95.437,540.587,538.837,0.0
50848.0,STARLINK-3315,PAYLOAD,2023-05-24 02:19:28,15.08834154,0.0001368,53.2171,80.7445,70.9325,289.1815,0.0002734,4.065e-05,0.0,0 STARLINK-3315,1 50848U 22001AX  23144.09686032  .00004065  00000-0  27340-3 0  9992,2 50848  53.2171  80.7445 0001368  70.9325 289.1815 15.08834154 77500,6917.898,95.438,540.71,538.817,0.0
50848.0,STARLINK-3315,PAYLOAD,2023-05-24 05:30:14,15.08841261,0.0001191,53.2175,80.1471,82.7101,277.4026,0.00023703,3.487e-05,0.0,0 STARLINK-3315,1 50848U 22001AX  23144.22933667  .00003487  00000-0  23703-3 0  9992,2 50848  53.2175  80.1471 0001191  82.7101 277.4026 15.08841261 76212,6917.877,95.437,540.565,538.918,0.0
50848.0,STARLINK-3315,PAYLOAD,2023-05-25 19:39:30,15.08841765,0.0001188,53.2179,73.0094,96.5474,263.5654,-2.5003e-05,-6.86e-06,0.0,0 STARLINK-3315,1 50848U 22001AX  23145.81910424 -.00000686  00000-0 -25003-4 0  9990,2 50848  53.2179  73.0094 0001188  96.5474 263.5654 15.08841765 76458,6917.875,95.437,540.562,538.918,0.0
50848.0,STARLINK-3315,PAYLOAD,2023-05-26 00:25:39,15.08844706,0.0001299,53.2181,72.1167,104.7832,255.3304,1.8652e-06,-2.58e-06,0.0,0 STARLINK-3315,1 50848U 22001AX  23146.01782104 -.00000258  00000-0  18652-5 0  9992,2 50848  53.2181  72.1167 0001299 104.7832 255.3304 15.08844706 77792,6917.866,95.437,540.63,538.832,0.0
50848.0,STARLINK-3315,PAYLOAD,2023-05-26 05:11:48,15.08847193,0.0001212,53.2181,71.2248,97.4029,262.71,2.8157e-05,1.6e-06,0.0,0 STARLINK-3315,1 50848U 22001AX  23146.21653827  .00000160  00000-0  28157-4 0  9994,2 50848  53.2181  71.2248 0001212  97.4029 262.7100 15.08847193 76511,6917.858,95.437,540.562,538.885,0.0
50848.0,STARLINK-3315,PAYLOAD,2023-05-26 21:05:41,15.08825088,0.0001304,53.2176,68.2525,107.418,252.6955,9.9481e-05,1.295e-05,0.0,0 STARLINK-3315,1 50848U 22001AX  23146.87895147  .00001295  00000-0  99481-4 0  9997,2 50848  53.2176  68.2525 0001304 107.4180 252.6955 15.08825088 76617,6917.926,95.438,540.693,538.889,0.0
50848.0,STARLINK-3315,PAYLOAD,2023-05-27 03:27:13,15.08832872,0.0001108,53.218,67.0631,92.5577,267.5542,1.8499e-05,7e-08,0.0,0 STARLINK-3315,1 50848U 22001AX  23147.14391138  .00000007  00000-0  18499-4 0  9999,2 50848  53.2180  67.0631 0001108  92.5577 267.5542 15.08832872 77968,6917.902,95.438,540.534,539.001,0.0
50848.0,STARLINK-3315,PAYLOAD,2023-05-27 22:31:51,15.08842854,0.0001039,53.218,63.4945,97.7563,262.3547,3.356e-05,2.46e-06,0.0,0 STARLINK-3315,1 50848U 22001AX  23147.93878710  .00000246  00000-0  33560-4 0  9993,2 50848  53.2180  63.4945 0001039  97.7563 262.3547 15.08842854 76778,6917.872,95.437,540.455,539.018,0.0
50848.0,STARLINK-3315,PAYLOAD,2023-05-28 01:42:37,15.08844461,0.0001072,53.218,62.9003,96.1748,263.9366,7.5116e-05,9.08e-06,0.0,0 STARLINK-3315,1 50848U 22001AX  23148.07126495  .00000908  00000-0  75116-4 0  9993,2 50848  53.2180  62.9003 0001072  96.1748 263.9366 15.08844461 78103,6917.867,95.437,540.473,538.99,0.0
50848.0,STARLINK-3315,PAYLOAD,2023-05-28 03:18:00,15.08847154,0.00011,53.2179,62.6028,101.063,259.0486,9.735e-05,1.262e-05,0.0,0 STARLINK-3315,1 50848U 22001AX  23148.13750276  .00001262  00000-0  97350-4 0  9998,2 50848  53.2179  62.6028 0001100 101.0630 259.0486 15.08847154 76809,6917.859,95.437,540.484,538.963,0.0
50848.0,STARLINK-3315,PAYLOAD,2023-05-28 20:47:15,15.08836317,0.0001118,53.2178,59.3324,97.0547,263.0573,7.5206e-05,9.09e-06,0.0,0 STARLINK-3315,1 50848U 22001AX  23148.86615126  .00000909  00000-0  75206-4 0  9995,2 50848  53.2178  59.3324 0001118  97.0547 263.0573 15.08836317 76913,6917.892,95.438,540.53,538.983,0.0
50848.0,STARLINK-3315,PAYLOAD,2023-05-29 03:08:47,15.08843162,0.0001134,53.2177,58.1429,94.9546,265.1576,0.00012585,1.716e-05,0.0,0 STARLINK-3315,1 50848U 22001AX  23149.13110582  .00001716  00000-0  12585-3 0  9999,2 50848  53.2177  58.1429 0001134  94.9546 265.1576 15.08843162 78260,6917.871,95.437,540.52,538.951,0.0
50848.0,STARLINK-3315,PAYLOAD,2023-05-29 17:27:16,15.08835771,0.0001138,53.2172,55.4693,91.1515,268.9607,-8.4752e-06,-4.23e-06,0.0,0 STARLINK-3315,1 50848U 22001AX  23149.72727413 -.00000423  00000-0 -84752-5 0  9994,2 50848  53.2172  55.4693 0001138  91.1515 268.9607 15.08835771 78350,6917.893,95.438,540.546,538.971,0.0
50848.0,STARLINK-3315,PAYLOAD,2023-05-29 20:38:03,15.08830898,0.0001208,53.2178,54.8715,91.7751,268.338,-4.2208e-05,-9.59e-06,0.0,0 STARLINK-3315,1 50848U 22001AX  23149.85976071 -.00000959  00000-0 -42208-4 0  9997,2 50848  53.2178  54.8715 0001208  91.7751 268.3380 15.08830898 77064,6917.908,95.438,540.609,538.938,0.0
50848.0,STARLINK-3315,PAYLOAD,2023-05-30 02:59:35,15.08838077,0.0001163,53.218,53.6818,90.2411,269.8715,-3.8437e-05,-8.99e-06,0.0,0 STARLINK-3315,1 50848U 22001AX  23150.12471684 -.00000899  00000-0 -38437-4 0  9991,2 50848  53.2180  53.6818 0001163  90.2411 269.8715 15.08838077 77105,6917.886,95.438,540.556,538.947,0.0
50848.0,STARLINK-3315,PAYLOAD,2023-05-30 22:04:12,15.08851739,0.0001215,53.2186,50.1133,79.0189,281.0939,7.4389e-05,8.97e-06,0.0,0 STARLINK-3315,1 50848U 22001AX  23150.91958470  .00000897  00000-0  74389-4 0  9993,2 50848  53.2186  50.1133 0001215  79.0189 281.0939 15.08851739 77225,6917.845,95.437,540.55,538.869,0.0
50848.0,STARLINK-3315,PAYLOAD,2023-05-31 02:50:21,15.08849069,0.0001168,53.2184,49.2207,96.8001,263.3124,0.0002542,3.761e-05,0.0,0 STARLINK-3315,1 50848U 22001AX  23151.11830025  .00003761  00000-0  25420-3 0  9995,2 50848  53.2184  49.2207 0001168  96.8001 263.3124 15.08849069 78561,6917.853,95.437,540.526,538.91,0.0
50848.0,STARLINK-3315,PAYLOAD,2023-05-31 21:54:59,15.08842768,0.0001512,53.2186,45.6464,119.6644,240.4499,3.1045e-05,2.06e-06,0.0,0 STARLINK-3315,1 50848U 22001AX  23151.91319000  .00000206  00000-0  31045-4 0  9990,2 50848  53.2186  45.6464 0001512 119.6644 240.4499 15.08842768 77376,6917.872,95.437,540.783,538.691,0.0
50848.0,STARLINK-3315,PAYLOAD,2023-05-31 23:30:22,15.08840466,0.0001212,53.2184,45.3552,92.0379,268.0752,0.00010832,1.436e-05,0.0,0 STARLINK-3315,1 50848U 22001AX  23151.97943084  .00001436  00000-0  10832-3 0  9997,2 50848  53.2184  45.3552 0001212  92.0379 268.0752 15.08840466 78692,6917.879,95.438,540.582,538.906,0.0
50848.0,STARLINK-3315,PAYLOAD,2023-06-02 16:50:24,15.08834539,0.0001208,53.217,37.6245,96.6309,263.4821,2.514e-05,1.12e-06,0.0,0 STARLINK-3315,1 50848U 22001AX  23153.70167718  .00000112  00000-0  25140-4 0  9991,2 50848  53.2170  37.6245 0001208  96.6309 263.4821 15.08834539 78957,6917.897,95.438,540.598,538.926,0.0
50848.0,STARLINK-3315,PAYLOAD,2023-06-02 21:36:34,15.08836689,0.0001201,53.2169,36.7328,95.575,264.5379,3.7895e-05,3.15e-06,0.0,0 STARLINK-3315,1 50848U 22001AX  23153.90039597  .00000315  00000-0  37895-4 0  9991,2 50848  53.2169  36.7328 0001201  95.5750 264.5379 15.08836689 77674,6917.891,95.438,540.586,538.925,0.0
50848.0,STARLINK-3315,PAYLOAD,2023-06-03 02:22:43,15.08840444,0.0001171,53.2169,35.8408,94.1377,265.9749,6.199e-05,6.99e-06,0.0,0 STARLINK-3315,1 50848U 22001AX  23154.09911290  .00000699  00000-0  61990-4 0  9999,2 50848  53.2169  35.8408 0001171  94.1377 265.9749 15.08840444 79019,6917.879,95.438,540.554,538.934,0.0
50848.0,STARLINK-3315,PAYLOAD,2023-06-03 21:27:21,15.0883354,0.0001181,53.217,32.2722,91.4683,268.6444,4.677e-05,4.56e-06,0.0,0 STARLINK-3315,1 50848U 22001AX  23154.89400055  .00000456  00000-0  46770-4 0  9999,2 50848  53.2170  32.2722 0001181  91.4683 268.6444 15.08833540 77820,6917.9,95.438,540.582,538.948,0.0
50848.0,STARLINK-3315,PAYLOAD,2023-06-04 00:38:07,15.08840609,0.0001195,53.217,31.6774,90.8025,269.3104,2.9929e-05,1.89e-06,0.0,0 STARLINK-3315,1 50848U 22001AX  23155.02647728  .00000189  00000-0  29929-4 0  9995,2 50848  53.2170  31.6774 0001195  90.8025 269.3104 15.08840609 77845,6917.879,95.438,540.57,538.917,0.0
50848.0,STARLINK-3315,PAYLOAD,2023-06-04 19:42:45,15.08853359,0.0001108,53.2175,28.1096,90.8309,269.281,-0.00011158,-2.064e-05,0.0,0 STARLINK-3315,1 50848U 22001AX  23155.82135564 -.00002064  00000-0 -11158-3 0  9993,2 50848  53.2175  28.1096 0001108  90.8309 269.2810 15.08853359 79275,6917.84,95.437,540.471,538.938,0.0
